MALLIGYONG-1            
1 58400U 23179A   24137.95478945  .00012290  00000+0  53165-3 0  9993
2 58400  97.4080  25.2830 0009661  24.1891 335.9797 15.22544755 26971
